{
  "type": "FeatureCollection",
  "features": [
    {
      "type": "Feature",
      "properties": {
        "norad_id": 66732,
        "name": "FLOCK 4H-29",
        "group": "last-30-days",
        "lat": -70.0544492459782,
        "lon": -130.77381745949845,
        "alt_km": 519.605660615689,
        "timestamp": "2025-12-24T18:55:54.775840+00:00",
        "meta_object_name": "FLOCK 4H-29",
        "meta_object_id": "2025-276BU",
        "meta_epoch": "2025-12-23T03:50:31.112448",
        "meta_mean_motion": 15.17286901,
        "meta_eccentricity": 0.00020889,
        "meta_inclination": 97.4392,
        "meta_ra_of_asc_node": 68.7307,
        "meta_arg_of_pericenter": 236.6345,
        "meta_mean_anomaly": 123.4689,
        "meta_ephemeris_type": 0,
        "meta_classification_type": "U",
        "meta_norad_cat_id": 66732,
        "meta_element_set_no": 999,
        "meta_rev_at_epoch": 370,
        "meta_bstar": 0.0019114481,
        "meta_mean_motion_dot": 0.00038183,
        "meta_mean_motion_ddot": 0,
        "tle_line1": "1 66732U 25276BU  25357.16008232  .00038183  00000+0  19114-2 0  9990",
        "tle_line2": "2 66732  97.4392  68.7307 0002088 236.6345 123.4689 15.17286901  3701"
      },
      "geometry": {
        "type": "Point",
        "coordinates": [
          -130.77381745949845,
          -70.0544492459782
        ]
      }
    },
    {
      "type": "Feature",
      "properties": {
        "norad_id": 66733,
        "name": "FLOCK 4H-30",
        "group": "last-30-days",
        "lat": -63.730257568014835,
        "lon": -125.01444306599116,
        "alt_km": 519.2164067599451,
        "timestamp": "2025-12-24T18:55:54.775850+00:00",
        "meta_object_name": "FLOCK 4H-30",
        "meta_object_id": "2025-276BV",
        "meta_epoch": "2025-12-24T08:00:03.000384",
        "meta_mean_motion": 15.17292259,
        "meta_eccentricity": 0.00032441,
        "meta_inclination": 97.4432,
        "meta_ra_of_asc_node": 69.8976,
        "meta_arg_of_pericenter": 258.0126,
        "meta_mean_anomaly": 20.4559,
        "meta_ephemeris_type": 0,
        "meta_classification_type": "U",
        "meta_norad_cat_id": 66733,
        "meta_element_set_no": 999,
        "meta_rev_at_epoch": 330,
        "meta_bstar": -0.0025412827,
        "meta_mean_motion_dot": -0.00050319,
        "meta_mean_motion_ddot": 0,
        "tle_line1": "1 66733U 25276BV  25358.33336806 -.00050319  00000+0 -25413-2 0  9998",
        "tle_line2": "2 66733  97.4432  69.8976 0003244 258.0126  20.4559 15.17292259  3302"
      },
      "geometry": {
        "type": "Point",
        "coordinates": [
          -125.01444306599116,
          -63.730257568014835
        ]
      }
    },
    {
      "type": "Feature",
      "properties": {
        "norad_id": 66734,
        "name": "FLOCK 4H-31",
        "group": "last-30-days",
        "lat": -64.07684322998782,
        "lon": -125.2683376911314,
        "alt_km": 519.7904775213128,
        "timestamp": "2025-12-24T18:55:54.775860+00:00",
        "meta_object_name": "FLOCK 4H-31",
        "meta_object_id": "2025-276BW",
        "meta_epoch": "2025-12-24T08:00:03.000384",
        "meta_mean_motion": 15.17247903,
        "meta_eccentricity": 0.00027526,
        "meta_inclination": 97.4368,
        "meta_ra_of_asc_node": 69.8732,
        "meta_arg_of_pericenter": 268.135,
        "meta_mean_anomaly": 10.7747,
        "meta_ephemeris_type": 0,
        "meta_classification_type": "U",
        "meta_norad_cat_id": 66734,
        "meta_element_set_no": 999,
        "meta_rev_at_epoch": 330,
        "meta_bstar": -0.002726258,
        "meta_mean_motion_dot": -0.0005388,
        "meta_mean_motion_ddot": 0,
        "tle_line1": "1 66734U 25276BW  25358.33336806 -.00053880  00000+0 -27263-2 0  9990",
        "tle_line2": "2 66734  97.4368  69.8732 0002752 268.1350  10.7747 15.17247903  3302"
      },
      "geometry": {
        "type": "Point",
        "coordinates": [
          -125.2683376911314,
          -64.07684322998782
        ]
      }
    },
    {
      "type": "Feature",
      "properties": {
        "norad_id": 66735,
        "name": "FLOCK 4H-32",
        "group": "last-30-days",
        "lat": -62.05865001563053,
        "lon": -123.9279111474018,
        "alt_km": 518.9012040266398,
        "timestamp": "2025-12-24T18:55:54.775870+00:00",
        "meta_object_name": "FLOCK 4H-32",
        "meta_object_id": "2025-276BX",
        "meta_epoch": "2025-12-24T03:37:07.597632",
        "meta_mean_motion": 15.17243922,
        "meta_eccentricity": 0.00035838,
        "meta_inclination": 97.4424,
        "meta_ra_of_asc_node": 69.7134,
        "meta_arg_of_pericenter": 254.0895,
        "meta_mean_anomaly": 105.9944,
        "meta_ephemeris_type": 0,
        "meta_classification_type": "U",
        "meta_norad_cat_id": 66735,
        "meta_element_set_no": 999,
        "meta_rev_at_epoch": 385,
        "meta_bstar": 0.00052011068,
        "meta_mean_motion_dot": 0.0001029,
        "meta_mean_motion_ddot": 0,
        "tle_line1": "1 66735U 25276BX  25358.15078238  .00010290  00000+0  52011-3 0  9999",
        "tle_line2": "2 66735  97.4424  69.7134 0003583 254.0895 105.9944 15.17243922  3855"
      },
      "geometry": {
        "type": "Point",
        "coordinates": [
          -123.9279111474018,
          -62.05865001563053
        ]
      }
    },
    {
      "type": "Feature",
      "properties": {
        "norad_id": 66736,
        "name": "FLOCK 4H-33",
        "group": "last-30-days",
        "lat": -18.890308417676177,
        "lon": 72.94508883738558,
        "alt_km": 517.9796900977135,
        "timestamp": "2025-12-24T18:55:54.775879+00:00",
        "meta_object_name": "FLOCK 4H-33",
        "meta_object_id": "2025-276BY",
        "meta_epoch": "2025-12-24T06:21:43.106400",
        "meta_mean_motion": 15.18307128,
        "meta_eccentricity": 0.00027527,
        "meta_inclination": 97.4425,
        "meta_ra_of_asc_node": 69.866,
        "meta_arg_of_pericenter": 154.1826,
        "meta_mean_anomaly": 205.9546,
        "meta_ephemeris_type": 0,
        "meta_classification_type": "U",
        "meta_norad_cat_id": 66736,
        "meta_element_set_no": 999,
        "meta_rev_at_epoch": 387,
        "meta_bstar": 0.0004233203,
        "meta_mean_motion_dot": 8.62e-05,
        "meta_mean_motion_ddot": 0,
        "tle_line1": "1 66736U 25276BY  25358.26508225  .00008620  00000+0  42332-3 0  9995",
        "tle_line2": "2 66736  97.4425  69.8660 0002752 154.1826 205.9546 15.18307128  3874"
      },
      "geometry": {
        "type": "Point",
        "coordinates": [
          72.94508883738558,
          -18.890308417676177
        ]
      }
    },
    {
      "type": "Feature",
      "properties": {
        "norad_id": 66737,
        "name": "FLOCK 4H-34",
        "group": "last-30-days",
        "lat": -32.410407556484806,
        "lon": 75.13933621440938,
        "alt_km": 521.4881099418808,
        "timestamp": "2025-12-24T18:55:54.775889+00:00",
        "meta_object_name": "FLOCK 4H-34",
        "meta_object_id": "2025-276BZ",
        "meta_epoch": "2025-12-23T20:54:55.278432",
        "meta_mean_motion": 15.17562953,
        "meta_eccentricity": 0.0002457,
        "meta_inclination": 97.4431,
        "meta_ra_of_asc_node": 69.4773,
        "meta_arg_of_pericenter": 51.6333,
        "meta_mean_anomaly": 308.5121,
        "meta_ephemeris_type": 0,
        "meta_classification_type": "U",
        "meta_norad_cat_id": 66737,
        "meta_element_set_no": 999,
        "meta_rev_at_epoch": 306,
        "meta_bstar": -0.020844,
        "meta_mean_motion_dot": -0.00396416,
        "meta_mean_motion_ddot": 0,
        "tle_line1": "1 66737U 25276BZ  25357.87147313 -.00396416  00000+0 -20844-1 0  9996",
        "tle_line2": "2 66737  97.4431  69.4773 0002457  51.6333 308.5121 15.17562953  3067"
      },
      "geometry": {
        "type": "Point",
        "coordinates": [
          75.13933621440938,
          -32.410407556484806
        ]
      }
    },
    {
      "type": "Feature",
      "properties": {
        "norad_id": 66738,
        "name": "FLOCK 4H-35",
        "group": "last-30-days",
        "lat": -19.45807750966965,
        "lon": 73.01836251199892,
        "alt_km": 517.9724430026299,
        "timestamp": "2025-12-24T18:55:54.775899+00:00",
        "meta_object_name": "FLOCK 4H-35",
        "meta_object_id": "2025-276CA",
        "meta_epoch": "2025-12-24T06:21:50.925600",
        "meta_mean_motion": 15.18264291,
        "meta_eccentricity": 0.00025861,
        "meta_inclination": 97.4402,
        "meta_ra_of_asc_node": 69.8571,
        "meta_arg_of_pericenter": 144.3482,
        "meta_mean_anomaly": 215.7925,
        "meta_ephemeris_type": 0,
        "meta_classification_type": "U",
        "meta_norad_cat_id": 66738,
        "meta_element_set_no": 999,
        "meta_rev_at_epoch": 316,
        "meta_bstar": 0.00055094668,
        "meta_mean_motion_dot": 0.00011229,
        "meta_mean_motion_ddot": 0,
        "tle_line1": "1 66738U 25276CA  25358.26517275  .00011229  00000+0  55095-3 0  9991",
        "tle_line2": "2 66738  97.4402  69.8571 0002586 144.3482 215.7925 15.18264291  3161"
      },
      "geometry": {
        "type": "Point",
        "coordinates": [
          73.01836251199892,
          -19.45807750966965
        ]
      }
    }
  ]
}